[{"OBJECT_NAME":"TIANMU-1 09","OBJECT_ID":"2023-101C","EPOCH":"2026-03-09T22:17:34.703232","MEAN_MOTION":15.29080822,"ECCENTRICITY":0.00049013,"INCLINATION":97.267,"RA_OF_ASC_NODE":121.1263,"ARG_OF_PERICENTER":139.4293,"MEAN_ANOMALY":220.7314,"EPHEMERIS_TYPE":0,"CLASSIFICATION_TYPE":"U","NORAD_CAT_ID":57401,"ELEMENT_SET_NO":999,"REV_AT_EPOCH":14647,"BSTAR":0.00030540035,"MEAN_MOTION_DOT":8.553e-5,"MEAN_MOTION_DDOT":0},{"OBJECT_NAME":"STARLINK-36062","OBJECT_ID":"2025-278D","EPOCH":"2026-03-09T03:31:10.346592","MEAN_MOTION":15.27594512,"ECCENTRICITY":0.00010859,"INCLINATION":42.9972,"RA_OF_ASC_NODE":117.6427,"ARG_OF_PERICENTER":283.1516,"MEAN_ANOMALY":76.9215,"EPHEMERIS_TYPE":0,"CLASSIFICATION_TYPE":"U","NORAD_CAT_ID":66794,"ELEMENT_SET_NO":999,"REV_AT_EPOCH":1512,"BSTAR":0.0010821006,"MEAN_MOTION_DOT":0.00029648,"MEAN_MOTION_DDOT":0}]
